[{"OBJECT_NAME":"PCSAT (NO-44)","OBJECT_ID":"2001-043C","EPOCH":"2026-03-03T16:35:16.088352","MEAN_MOTION":14.31908513,"ECCENTRICITY":0.0007029,"INCLINATION":67.0509,"RA_OF_ASC_NODE":157.1258,"ARG_OF_PERICENTER":265.3966,"MEAN_ANOMALY":94.6334,"EPHEMERIS_TYPE":0,"CLASSIFICATION_TYPE":"U","NORAD_CAT_ID":26931,"ELEMENT_SET_NO":999,"REV_AT_EPOCH":27534,"BSTAR":0.00012407023,"MEAN_MOTION_DOT":2.5e-6,"MEAN_MOTION_DDOT":0},{"OBJECT_NAME":"PROBA-1","OBJECT_ID":"2001-049B","EPOCH":"2026-03-04T04:19:03.868032","MEAN_MOTION":15.06984992,"ECCENTRICITY":0.0057005,"INCLINATION":97.9622,"RA_OF_ASC_NODE":68.0676,"ARG_OF_PERICENTER":117.1507,"MEAN_ANOMALY":243.5548,"EPHEMERIS_TYPE":0,"CLASSIFICATION_TYPE":"U","NORAD_CAT_ID":26958,"ELEMENT_SET_NO":999,"REV_AT_EPOCH":32780,"BSTAR":0.0001539,"MEAN_MOTION_DOT":2.318e-5,"MEAN_MOTION_DDOT":0},{"OBJECT_NAME":"SPOT 5","OBJECT_ID":"2002-021A","EPOCH":"2026-03-04T03:20:32.902944","MEAN_MOTION":14.5465412,"ECCENTRICITY":0.0128647,"INCLINATION":97.9996,"RA_OF_ASC_NODE":106.5942,"ARG_OF_PERICENTER":242.9114,"MEAN_ANOMALY":115.8911,"EPHEMERIS_TYPE":0,"CLASSIFICATION_TYPE":"U","NORAD_CAT_ID":27421,"ELEMENT_SET_NO":999,"REV_AT_EPOCH":24757,"BSTAR":0.00013706,"MEAN_MOTION_DOT":6.04e-6,"MEAN_MOTION_DDOT":0},{"OBJECT_NAME":"FENGYUN 1D","OBJECT_ID":"2002-024B","EPOCH":"2026-03-04T03:24:01.903680","MEAN_MOTION":14.1020855,"ECCENTRICITY":0.0015557,"INCLINATION":98.9672,"RA_OF_ASC_NODE":113.8855,"ARG_OF_PERICENTER":175.012,"MEAN_ANOMALY":185.1208,"EPHEMERIS_TYPE":0,"CLASSIFICATION_TYPE":"U","NORAD_CAT_ID":27431,"ELEMENT_SET_NO":999,"REV_AT_EPOCH":22467,"BSTAR":0.00010367,"MEAN_MOTION_DOT":1.39e-6,"MEAN_MOTION_DDOT":0},{"OBJECT_NAME":"SAUDISAT 1C (SO-50)","OBJECT_ID":"2002-058C","EPOCH":"2026-03-04T03:42:18.989280","MEAN_MOTION":14.82756785,"ECCENTRICITY":0.0075133,"INCLINATION":64.5519,"RA_OF_ASC_NODE":93.8922,"ARG_OF_PERICENTER":281.7019,"MEAN_ANOMALY":77.5664,"EPHEMERIS_TYPE":0,"CLASSIFICATION_TYPE":"U","NORAD_CAT_ID":27607,"ELEMENT_SET_NO":999,"REV_AT_EPOCH":24888,"BSTAR":0.0003092,"MEAN_MOTION_DOT":2.476e-5,"MEAN_MOTION_DDOT":0},{"OBJECT_NAME":"CORIOLIS","OBJECT_ID":"2003-001A","EPOCH":"2026-03-03T15:20:53.644128","MEAN_MOTION":14.19910037,"ECCENTRICITY":0.0014499,"INCLINATION":98.7161,"RA_OF_ASC_NODE":71.1242,"ARG_OF_PERICENTER":153.1511,"MEAN_ANOMALY":207.0418,"EPHEMERIS_TYPE":0,"CLASSIFICATION_TYPE":"U","NORAD_CAT_ID":27640,"ELEMENT_SET_NO":999,"REV_AT_EPOCH":19924,"BSTAR":0.00011238,"MEAN_MOTION_DOT":1.95e-6,"MEAN_MOTION_DDOT":0},{"OBJECT_NAME":"CUTE-1 (CO-55)","OBJECT_ID":"2003-031E","EPOCH":"2026-03-04T00:20:04.480800","MEAN_MOTION":14.24260748,"ECCENTRICITY":0.0010497,"INCLINATION":98.6778,"RA_OF_ASC_NODE":72.8832,"ARG_OF_PERICENTER":127.2783,"MEAN_ANOMALY":232.9354,"EPHEMERIS_TYPE":0,"CLASSIFICATION_TYPE":"U","NORAD_CAT_ID":27844,"ELEMENT_SET_NO":999,"REV_AT_EPOCH":17670,"BSTAR":0.00022828,"MEAN_MOTION_DOT":4.83e-6,"MEAN_MOTION_DDOT":0},{"OBJECT_NAME":"CUBESAT XI-IV (CO-57)","OBJECT_ID":"2003-031J","EPOCH":"2026-03-03T22:47:58.788672","MEAN_MOTION":14.23556668,"ECCENTRICITY":0.0010137,"INCLINATION":98.6808,"RA_OF_ASC_NODE":72.6171,"ARG_OF_PERICENTER":144.034,"MEAN_ANOMALY":216.1522,"EPHEMERIS_TYPE":0,"CLASSIFICATION_TYPE":"U","NORAD_CAT_ID":27848,"ELEMENT_SET_NO":999,"REV_AT_EPOCH":17640,"BSTAR":0.00019861,"MEAN_MOTION_DOT":4.09e-6,"MEAN_MOTION_DDOT":0},{"OBJECT_NAME":"MOZHAETS 4 (RS22)","OBJECT_ID":"2003-042A","EPOCH":"2026-03-04T05:28:57.039744","MEAN_MOTION":14.73235056,"ECCENTRICITY":0.0010292,"INCLINATION":98.3425,"RA_OF_ASC_NODE":244.6376,"ARG_OF_PERICENTER":239.1759,"MEAN_ANOMALY":229.6712,"EPHEMERIS_TYPE":0,"CLASSIFICATION_TYPE":"U","NORAD_CAT_ID":27939,"ELEMENT_SET_NO":999,"REV_AT_EPOCH":20009,"BSTAR":0.00028787,"MEAN_MOTION_DOT":1.806e-5,"MEAN_MOTION_DDOT":0},{"OBJECT_NAME":"IRS-P6 (RESOURCESAT-1)","OBJECT_ID":"2003-046A","EPOCH":"2026-03-04T03:59:34.508832","MEAN_MOTION":14.36113225,"ECCENTRICITY":0.0063072,"INCLINATION":98.2056,"RA_OF_ASC_NODE":104.7572,"ARG_OF_PERICENTER":297.9734,"MEAN_ANOMALY":137.8089,"EPHEMERIS_TYPE":0,"CLASSIFICATION_TYPE":"U","NORAD_CAT_ID":28051,"ELEMENT_SET_NO":999,"REV_AT_EPOCH":16545,"BSTAR":0.00010191,"MEAN_MOTION_DOT":2.62e-6,"MEAN_MOTION_DDOT":0},{"OBJECT_NAME":"SAUDISAT 2","OBJECT_ID":"2004-025F","EPOCH":"2026-03-03T14:07:17.406624","MEAN_MOTION":14.56610022,"ECCENTRICITY":0.0023518,"INCLINATION":98.5493,"RA_OF_ASC_NODE":59.8567,"ARG_OF_PERICENTER":260.7971,"MEAN_ANOMALY":99.0566,"EPHEMERIS_TYPE":0,"CLASSIFICATION_TYPE":"U","NORAD_CAT_ID":28371,"ELEMENT_SET_NO":999,"REV_AT_EPOCH":15037,"BSTAR":0.00011984,"MEAN_MOTION_DOT":4.86e-6,"MEAN_MOTION_DDOT":0},{"OBJECT_NAME":"COSMOS 2407","OBJECT_ID":"2004-028A","EPOCH":"2026-03-04T03:41:00.142368","MEAN_MOTION":13.76324308,"ECCENTRICITY":0.0039299,"INCLINATION":82.9639,"RA_OF_ASC_NODE":152.6237,"ARG_OF_PERICENTER":184.1574,"MEAN_ANOMALY":191.2267,"EPHEMERIS_TYPE":0,"CLASSIFICATION_TYPE":"U","NORAD_CAT_ID":28380,"ELEMENT_SET_NO":999,"REV_AT_EPOCH":8543,"BSTAR":7.6777e-5,"MEAN_MOTION_DOT":9.1e-7,"MEAN_MOTION_DDOT":0},{"OBJECT_NAME":"COSMOS 2414","OBJECT_ID":"2005-002A","EPOCH":"2026-03-04T03:20:22.784640","MEAN_MOTION":13.87914663,"ECCENTRICITY":0.0038676,"INCLINATION":82.9492,"RA_OF_ASC_NODE":123.117,"ARG_OF_PERICENTER":268.7807,"MEAN_ANOMALY":90.8925,"EPHEMERIS_TYPE":0,"CLASSIFICATION_TYPE":"U","NORAD_CAT_ID":28521,"ELEMENT_SET_NO":999,"REV_AT_EPOCH":6924,"BSTAR":9.387e-5,"MEAN_MOTION_DOT":1.27e-6,"MEAN_MOTION_DDOT":0},{"OBJECT_NAME":"INMARSAT 4-F1","OBJECT_ID":"2005-009A","EPOCH":"2026-03-04T02:54:13.898016","MEAN_MOTION":1.00272499,"ECCENTRICITY":0.0002751,"INCLINATION":5.0271,"RA_OF_ASC_NODE":42.7342,"ARG_OF_PERICENTER":325.3639,"MEAN_ANOMALY":15.4373,"EPHEMERIS_TYPE":0,"CLASSIFICATION_TYPE":"U","NORAD_CAT_ID":28628,"ELEMENT_SET_NO":999,"REV_AT_EPOCH":7661,"BSTAR":0,"MEAN_MOTION_DOT":2.3e-7,"MEAN_MOTION_DDOT":0},{"OBJECT_NAME":"HAMSAT (VO-52)","OBJECT_ID":"2005-017B","EPOCH":"2026-03-04T00:54:18.890496","MEAN_MOTION":15.08688809,"ECCENTRICITY":0.0020731,"INCLINATION":97.9995,"RA_OF_ASC_NODE":81.6795,"ARG_OF_PERICENTER":37.4621,"MEAN_ANOMALY":322.8046,"EPHEMERIS_TYPE":0,"CLASSIFICATION_TYPE":"U","NORAD_CAT_ID":28650,"ELEMENT_SET_NO":999,"REV_AT_EPOCH":13090,"BSTAR":0.00052926,"MEAN_MOTION_DOT":8.272e-5,"MEAN_MOTION_DDOT":0},{"OBJECT_NAME":"NOAA 18","OBJECT_ID":"2005-018A","EPOCH":"2026-03-04T03:54:32.907168","MEAN_MOTION":14.13709605,"ECCENTRICITY":0.0015347,"INCLINATION":98.8165,"RA_OF_ASC_NODE":144.3474,"ARG_OF_PERICENTER":90.1079,"MEAN_ANOMALY":270.1852,"EPHEMERIS_TYPE":0,"CLASSIFICATION_TYPE":"U","NORAD_CAT_ID":28654,"ELEMENT_SET_NO":999,"REV_AT_EPOCH":7147,"BSTAR":6.9078e-5,"MEAN_MOTION_DOT":8.7e-7,"MEAN_MOTION_DDOT":0},{"OBJECT_NAME":"SJ-7","OBJECT_ID":"2005-024A","EPOCH":"2026-03-04T01:47:20.628384","MEAN_MOTION":15.19838296,"ECCENTRICITY":0.0017317,"INCLINATION":97.7408,"RA_OF_ASC_NODE":90.4153,"ARG_OF_PERICENTER":42.195,"MEAN_ANOMALY":318.0613,"EPHEMERIS_TYPE":0,"CLASSIFICATION_TYPE":"U","NORAD_CAT_ID":28737,"ELEMENT_SET_NO":999,"REV_AT_EPOCH":13205,"BSTAR":0.00061334,"MEAN_MOTION_DOT":0.0001314,"MEAN_MOTION_DDOT":0}]
